GOES 17                 
1 43226U 18022A   26115.86780985 -.00000195  00000+0  00000+0 0  9990
2 43226   0.8053  86.4106 0000672 269.3830  81.0047  1.00272049 29899
FENGYUN 2H              
1 43491U 18050A   26115.93929295 -.00000140  00000+0  00000+0 0  9992
2 43491   2.8988  79.6569 0001751 159.1021  32.5834  1.00274278 28919
METOP-C                 
1 43689U 18087A   26115.91074931  .00000093  00000+0  62337-4 0  9999
2 43689  98.6680 176.4605 0000861  40.6957 319.4284 14.21511580387405
GEO-KOMPSAT-2A          
1 43823U 18100A   26115.94899966 -.00000357  00000+0  00000+0 0  9999
2 43823   0.0569  67.0046 0001951 358.3470 258.5132  1.00271371 27109
METEOR-M2 2             
1 44387U 19038A   26115.98124899 -.00000023  00000+0  99019-5 0  9990
2 44387  98.9135 102.5033 0001733 128.8442 231.2892 14.24350550353861
ARKTIKA-M 1             
1 47719U 21016A   26113.16409645 -.00000101  00000+0  00000+0 0  9997
2 47719  63.2246  65.5569 7266494 269.6808  14.9538  2.00609676 37686
FENGYUN 3E              
1 49008U 21062A   26115.98560451  .00000218  00000+0  12322-3 0  9998
2 49008  98.7512 119.9750 0000785 198.0129 162.1020 14.19900052249173
GOES 18                 
1 51850U 22021A   26115.68255981  .00000083  00000+0  00000+0 0  9994
2 51850   0.0124  93.6914 0000386 357.8405 230.8777  1.00271801  6065
NOAA 21 (JPSS-2)        
1 54234U 22150A   26115.87605025  .00000052  00000+0  45256-4 0  9998
2 54234  98.7033  55.5515 0001848  23.4812 336.6449 14.19555503179120
METEOSAT-12 (MTG-I1)    
1 54743U 22170C   26115.92351955 -.00000021  00000+0  00000+0 0  9991
2 54743   0.7235  22.2457 0001126 331.0139 192.8148  1.00269304 12454
TIANMU-1 03             
1 55973U 23039A   26115.96366191  .00017471  00000+0  36260-3 0  9991
2 55973  97.5221 287.9548 0001650 286.2705  73.8362 15.45767606172761
TIANMU-1 04             
1 55974U 23039B   26115.90767244  .00017943  00000+0  36547-3 0  9992
2 55974  97.5154 287.0497 0002276 278.9136  81.1855 15.46309545172766
TIANMU-1 05             
1 55975U 23039C   26115.94210869  .00017527  00000+0  36453-3 0  9997
2 55975  97.5200 287.5665 0001631 328.4867  31.6284 15.45704468172743
TIANMU-1 06             
1 55976U 23039D   26115.90820384  .00017576  00000+0  35896-3 0  9997
2 55976  97.5209 288.1160 0001820 315.5012  44.6090 15.46237033172760
FENGYUN 3G              
1 56232U 23055A   26115.80353743  .00027829  00000+0  45359-3 0  9997
2 56232  49.9926 256.1754 0005970 319.9000  40.1526 15.52336625171861
METEOR-M2 3             
1 57166U 23091A   26115.96377630 -.00000006  00000+0  16423-4 0  9992
2 57166  98.6131 171.9995 0003294 338.5408  21.5633 14.24042152147080
TIANMU-1 07             
1 57399U 23101A   26115.89286181  .00007304  00000+0  25998-3 0  9997
2 57399  97.2642 167.7728 0001527  15.3068 344.8218 15.29246472153653
TIANMU-1 08             
1 57400U 23101B   26115.92580669  .00008420  00000+0  29899-3 0  9996
2 57400  97.2630 167.5812 0002300 321.7298  38.3779 15.29277475153658
TIANMU-1 09             
1 57401U 23101C   26115.90952508  .00006932  00000+0  24657-3 0  9993
2 57401  97.2589 167.0099 0002022   6.8305 353.2963 15.29283195153655
TIANMU-1 10             
1 57402U 23101D   26115.94223890  .00007600  00000+0  26979-3 0  9995
2 57402  97.2667 168.0375 0002934 341.5221  18.5912 15.29319097153655
FENGYUN 3F              
1 57490U 23111A   26115.90019326  .00000031  00000+0  35193-4 0  9996
2 57490  98.6861 186.8774 0000891 112.9797 247.1474 14.19929497141448
ARKTIKA-M 2             
1 58584U 23198A   26110.92958556  .00000217  00000+0  00000+0 0  9990
2 58584  63.2192 160.7194 6953303 267.0904  18.4710  2.00586979 17173
TIANMU-1 11             
1 58645U 23205A   26115.94724591  .00006395  00000+0  24794-3 0  9997
2 58645  97.3491 138.3375 0009058 176.7807 183.3492 15.26442198129555
TIANMU-1 12             
1 58646U 23205B   26115.98164449  .00006507  00000+0  25270-3 0  9997
2 58646  97.3478 138.1383 0007911 158.4398 201.7176 15.26388210129543
TIANMU-1 13             
1 58647U 23205C   26116.01094854  .00007027  00000+0  27215-3 0  9994
2 58647  97.3507 138.4268 0008758 142.5287 217.6564 15.26442139129541
TIANMU-1 14             
1 58648U 23205D   26115.93077779  .00006853  00000+0  26570-3 0  9991
2 58648  97.3442 137.5742 0009364 147.4453 212.7365 15.26412704129539
TIANMU-1 19             
1 58660U 23208A   26115.93985315  .00010376  00000+0  35152-3 0  9993
2 58660  97.4436 232.0252 0006265 133.2108 226.9657 15.30740125129336
TIANMU-1 20             
1 58661U 23208B   26115.95292912  .00010456  00000+0  34127-3 0  9990
2 58661  97.4377 232.6198 0008265 142.5810 217.6009 15.31928596129420
TIANMU-1 21             
1 58662U 23208C   26115.95221440  .00012334  00000+0  37569-3 0  9999
2 58662  97.4434 235.0804 0008263 137.5787 222.6095 15.34094429129558
TIANMU-1 22             
1 58663U 23208D   26115.90506530  .00008757  00000+0  30140-3 0  9993
2 58663  97.4431 231.9680 0004623 149.3350 210.8161 15.30284417129339
TIANMU-1 15             
1 58700U 24004A   26115.92779936  .00007178  00000+0  27801-3 0  9990
2 58700  97.4682 302.1272 0007547 161.7251 198.4260 15.26451792127801
TIANMU-1 16             
1 58701U 24004B   26115.97570201  .00006796  00000+0  26315-3 0  9994
2 58701  97.4626 301.4655 0005924 161.3712 198.7745 15.26490318127811
TIANMU-1 17             
1 58702U 24004C   26115.95970087  .00006631  00000+0  25802-3 0  9997
2 58702  97.4656 301.9181 0005688 166.1518 193.9877 15.26338324127808
TIANMU-1 18             
1 58703U 24004D   26115.94407299  .00006649  00000+0  25788-3 0  9999
2 58703  97.4674 302.1271 0004595 157.0470 203.0975 15.26451667127802
INSAT-3DS               
1 58990U 24033A   26115.93981295 -.00000169  00000+0  00000+0 0  9999
2 58990   0.0898  86.6512 0001910 298.1162 249.5846  1.00270704 46544
METEOR-M2 4             
1 59051U 24039A   26115.91921950  .00000025  00000+0  30948-4 0  9993
2 59051  98.6975  75.8860 0006488 329.8392  30.2412 14.22423888111830
GOES 19                 
1 60133U 24119A   26115.86780985 -.00000262  00000+0  00000+0 0  9995
2 60133   0.0279  93.9673 0000576 349.8122   7.3054  1.00270221  6434
FENGYUN 3H              
1 65815U 25219A   26115.82552989  .00000047  00000+0  42640-4 0  9997
2 65815  98.6740  57.6216 0000812 105.5714 254.5553 14.19943816 29952
OSCAR 7 (AO-7)          
1 07530U 74089B   26115.95702641 -.00000031  00000+0  95566-4 0  9991
2 07530 101.9931 128.6547 0011961 229.6194 199.9459 12.53697171353970
PHASE 3B (AO-10)        
1 14129U 83058B   26115.43941508  .00000058  00000+0  00000+0 0  9991
2 14129  25.8952 228.3573 6029561 101.1190 328.2592  2.05871318294407
UOSAT 2 (UO-11)         
1 14781U 84021B   26115.86533004  .00001408  00000+0  14934-3 0  9996
2 14781  97.8018  82.0428 0007770   9.0173 351.1184 14.90654729249332
LUSAT (LO-19)           
1 20442U 90005G   26115.78541409  .00000110  00000+0  56077-4 0  9999
2 20442  98.8886 136.1385 0011611   5.6944 354.4370 14.34106019894888
EYESAT A (AO-27)        
1 22825U 93061C   26115.76645025  .00000069  00000+0  43302-4 0  9998
2 22825  98.6906 183.1918 0007303 251.4174 108.6215 14.30927492699500
ITAMSAT (IO-26)         
1 22826U 93061D   26115.76145740  .00000075  00000+0  45331-4 0  9999
2 22826  98.6853 183.0989 0007974 232.8581 127.1874 14.31352931699810
RADIO ROSTO (RS15)      
1 23439U 94085A   26115.87811298 -.00000048  00000+0 -14476-3 0  9994
2 23439  64.8201  27.8138 0154447  13.3925 347.1030 11.27583701290005
JAS-2 (FO-29)           
1 24278U 96046B   26115.59447711 -.00000004  00000+0  34217-4 0  9996
2 24278  98.5303 331.6515 0349018 232.8208 124.0594 13.53271563466059
TECHSAT 1B (GO-32)      
1 25397U 98043D   26115.94389757  .00000065  00000+0  48241-4 0  9990
2 25397  99.0061 107.3893 0001793  43.5469 316.5850 14.24417684443892
ISS (ZARYA)             
1 25544U 98067A   26115.61933538  .00010271  00000+0  19457-3 0  9992
2 25544  51.6320 200.2872 0006949 349.7097  10.3748 15.48952974563604
PCSAT (NO-44)           
1 26931U 01043C   26115.84473577  .00000123  00000+0  76957-4 0  9992
2 26931  67.0528  19.6518 0006513 263.9909  96.0451 14.31935056282952
SAUDISAT 1C (SO-50)     
1 27607U 02058C   26115.82574773  .00001145  00000+0  15231-3 0  9990
2 27607  64.5516 290.9753 0075587 271.9918  87.2533 14.82928015256691
CUTE-1 (CO-55)          
1 27844U 03031E   26115.77207239  .00000259  00000+0  13095-3 0  9990
2 27844  98.6757 124.9877 0009142 345.2337  14.8573 14.24301725184213
CUBESAT XI-IV (CO-57)   
1 27848U 03031J   26115.94518094  .00000257  00000+0  13187-3 0  9997
2 27848  98.6790 124.9135 0009431   3.4724 356.6519 14.23591802183947
MOZHAETS 4 (RS22)       
1 27939U 03042A   26115.94021270  .00000934  00000+0  15234-3 0  9992
2 27939  98.3474 298.8267 0012544  75.8922  84.8120 14.73370253207858
CUBESAT XI-V            
1 28895U 05043F   26115.40187729  .00001332  00000+0  21784-3 0  9990
2 28895  98.2923 269.9383 0014310  18.3896 341.7825 14.72487588 93984
CUTE-1.7+APD II (CO-65) 
1 32785U 08021C   26115.93638928  .00006159  00000+0  39406-3 0  9994
2 32785  97.8257  96.2988 0008264 194.5101 165.5891 15.08945436977315
SEEDS II (CO-66)        
1 32791U 08021J   26115.94206132  .00021355  00000+0  71588-3 0  9992
2 32791  97.7532 111.4231 0004953 115.6257 244.5496 15.30926157979297
YUBILEINY (RS30)        
1 32953U 08025A   26115.86818078  .00000001  00000+0 -62541-4 0  9991
2 32953  82.5071  27.9797 0020640  65.9228 294.4008 12.43177709813192
KKS-1 (KISEKI)          
1 33499U 09002H   26115.83286811  .00001435  00000+0  18342-3 0  9994
2 33499  98.1190  37.4518 0009304  98.1614 262.0655 14.82983921928430
SWISSCUBE               
1 35932U 09051B   26115.69062747  .00000913  00000+0  19044-3 0  9996
2 35932  98.4066  22.6611 0007421  26.1773 333.9801 14.62374931881481
